NIMIQ 5                 
1 35873U 09050A   17345.78379267 -.00000263  00000-0  00000+0 0  9990
2 35873   0.0185   6.8898 0002532 267.8720  15.3808  1.00271917 30179
